ONEWEB-0291             
1 49081U 21075G   24329.86980985  .00000110  00000+0  24915-3 0  9995
2 49081  87.9074 119.2790 0001328 103.8339 256.2940 13.17651371158635
ONEWEB-0293             
1 49082U 21075H   24329.43952374  .00000143  00000+0  33576-3 0  9999
2 49082  87.9079 119.3868 0001355  95.2635 264.8651 13.17647974158606
ONEWEB-0294             
1 49083U 21075J   24329.76157229  .00000429  00000+0  11580-2 0  9999
2 49083  87.8862 104.0544 0000926 110.2894 249.8334 13.12441910159885
ONEWEB-0295             
1 49084U 21075K   24329.81834557  .00000087  00000+0  19158-3 0  9992
2 49084  87.9078 119.2894 0001430 107.5430 252.5858 13.17646291158614
ONEWEB-0296             
1 49085U 21075L   24329.81833883  .00000362  00000+0  97006-3 0  9998
2 49085  87.8864 104.0467 0001263 127.3714 232.7530 13.12444730159891
ONEWEB-0297             
1 49086U 21075M   24329.77291321  .00000091  00000+0  21652-3 0  9992
2 49086  87.8870 104.0749 0001581 100.5470 259.5836 13.12439644160499
ONEWEB-0298             
1 49087U 21075N   24328.91146576  .00000020  00000+0  17641-4 0  9995
2 49087  87.9078 119.4880 0001715 103.3706 256.7616 13.17649206158527
ONEWEB-0299             
1 49088U 21075P   24329.90019668 -.00000045  00000+0 -14940-3 0  9994
2 49088  87.9071 119.2535 0001643  97.1922 262.9396 13.17648835158639
